0 THORAD DELTA 1 DEB
1 14879U 74089ES  13286.69932903  .00000067  00000-0  10090-2 0  9409
2 14879 101.2305 322.1209 0213622 296.3549 187.4601 12.15185648325015
0 THORAD DELTA 1 DEB
1 14879U 74089ES  13291.63958632 -.00000049  00000-0 -97002-4 0  9419
2 14879 101.2294 326.4749 0213781 287.2512 199.4890 12.15187567325614
0 THORAD DELTA 1 DEB
1 14879U 74089ES  13292.70860156 -.00000010  00000-0  27678-3 0  9420
2 14879 101.2294 327.4169 0213796 285.2838 196.0887 12.15187244325741
0 THORAD DELTA 1 DEB
1 14879U 74089ES  13294.34215433  .00000064  00000-0  98349-3 0  9436
2 14879 101.2294 328.8564 0213851 282.2734 142.3670 12.15186787325946
0 THORAD DELTA 1 DEB
1 14879U 74089ES  13295.59831400  .00000068  00000-0  10182-2 0  9445
2 14879 101.2293 329.9628 0213879 279.9477 237.6769 12.15187190326098
